{"John Hay Library": {"addr:housename": "John Hay Library", "addr:housenumber": "20-34", "addr:postcode": "02912", "addr:street": "Prospect Street", "building": "yes", "int_name": "John Hay Library"}, "Haffenreffer Museum of Anthropology": {"tourism": "museum"}, "Van Wickle Gates": {"access": "public", "barrier": "gate"}, "Starbucks": {"amenity": "cafe", "cuisine": "coffee_shop", "internet_access": "yes", "smoking": "no", "wheelchair": "limited"}, "Circle Dance Sculpture": {"artist_name": "Thomas Friedman", "artwork_type": "sculpture", "start_date": "2012", "tourism": "artwork"}, "Department of Cognitive, Linguistic, and Psychological Sciences": {"addr:city": "Providence", "addr:housenumber": "190", "addr:postcode": "02912", "addr:state": "RI", "addr:street": "Thayer Street"}, "Brown University": {"amenity": "college"}, "The Ivy Room": {"amenity": "cafe", "operator": "Brown University", "website": "https://brown.cafebonappetit.com/cafe/ivy-room/"}, "Blue Room": {"amenity": "cafe", "operator": "Brown University", "outdoor_seating": "yes", "website": "https://brown.cafebonappetit.com/cafe/blue-room/"}, "Campus Market": {"operator": "Brown University", "shop": "convenience", "website": "https://brown.cafebonappetit.com/cafe/campus-market/"}, "P-131317": {"artist_name": "Sarah Oppenheimer", "artwork_type": "building", "material": "glass", "start_date": "2011", "tourism": "artwork", "website": "https://www.brown.edu/about/public-art/percent-art/sarah-oppenheimer-p-131317-2011"}, "Reclining Figure No. 2 \u2014 Bridge Prop": {"artist_name": "Henry Moore", "artwork_type": "sculpture", "start_date": "1963", "tourism": "artwork", "website": "https://www.brown.edu/about/public-art/gifts/henry-moore-reclining-figure-no-2-%E2%80%94-bridge-prop-1963"}, "Slavery Memorial": {"artist": "Martin Puryear", "historic": "memorial", "material": "iron", "start_date": "2014", "website": "https://www.brown.edu/about/public-art/martin-puryear-slavery-memorial"}, "Casey Shearer Memorial": {"amenity": "fountain", "artist_name": "Howard Ben Tr\u00e9", "historic": "memorial", "material": "glass", "start_date": "2003", "website": "https://www.brown.edu/about/public-art/commissioned-memorials/howard-ben-tr%C3%A9-casey-shearer-memorial"}, "War Memorial": {"artist_name": "Richard Fleischner", "historic": "memorial", "memorial": "war_memorial", "start_date": "1997", "website": "https://www.brown.edu/about/public-art/commissioned-memorials/richard-fleischner-war-memorial"}, "Untitled (Lamp/Bear)": {"alt_name": "Blueno", "artist_name": "Urs Fischer", "artwork_type": "sculpture", "start_date": "2006", "tourism": "artwork", "website": "https://www.brown.edu/about/public-art/Fischer"}, "Marcus Aurelius": {"artwork_type": "equestrian_statue", "start_date": "1908", "tourism": "artwork"}, "Brown Bear": {"artist_name": "unknow", "artwork_type": "statue", "tourism": "artwork"}, "Idee di pietra": {"artist_name": "Giuseppe Penone", "artwork_type": "sculpture", "start_date": "2006", "tourism": "artwork", "website": "https://www.brown.edu/about/public-art/Penone"}, "Phi Kappa Psi Fraternity": {"amenity": "social_facility"}, "Alpha Chi Omega Sorority": {"amenity": "social_facility"}, "Brown University Sciences Library": {"addr:city": "Providence", "addr:housename": "Science Library", "addr:housenumber": "101-109", "addr:postcode": "02912", "addr:state": "RI", "addr:street": "Thayer Street", "amenity": "library", "building": "yes", "building:levels:aboveground": "15", "height": "55", "internet_access": "wlan", "internet_access:fee": "no", "internet_access:ssid": "Brown-Guest", "operator": "Brown University", "source": "knowledge", "wikidata": "Q7433719"}, "Rockefeller Library": {"addr:city": "providence", "addr:housename": "Rockefeller Library", "addr:housenumber": "10", "addr:postcode": "02912", "addr:state": "RI", "addr:street": "Prospect Street", "amenity": "library", "building": "university", "ele": "33", "gnis:feature_id": "1904104", "gnis:reviewed": "no", "phone": "401-863-2165", "source": "USGS Geonames", "website": "https://library.brown.edu/about/rock/", "wheelchair": "yes", "wikipedia": "en:John D. Rockefeller, Jr. Library"}, "College Green": {"landuse": "grass", "source": "knowledge"}, "Watson Center for Information Technology": {"addr:city": "Providence", "addr:country": "US", "addr:housename": "Watson Center for Information Technology", "addr:housenumber": "115", "addr:postcode": "02912", "addr:state": "RI", "addr:street": "Waterman Street", "building": "yes", "building:levels:aboveground": "5", "source": "knowledge"}, "Salomon Center for Teaching": {"addr:housename": "Salomon Center for Teaching", "addr:housenumber": "69 ", "addr:postcode": "02912", "addr:street": "Waterman Street", "building": "yes"}, "University Hall": {"addr:housename": "University Hall", "addr:housenumber": "1-21", "addr:postcode": "02912", "addr:street": "Prospect Street", "building": "university", "wikidata": "Q7894710"}, "John Carter Brown Library": {"addr:city": "Providence", "addr:housenumber": "94", "addr:postcode": "02912", "addr:state": "RI", "addr:street": "George Street", "amenity": "library", "building": "university", "opening_hours": "Mo 08:30-17:00;Tu 08:30-19:00;We 08:30-17:00;Th 08:30-19:00;Fr 08:30-17:00;Sa 09:00-12:00;Su off", "operator": "Brown University", "phone": "+1 (401) 863-2725", "website": "https://www.brown.edu/academics/libraries/john-carter-brown/", "wikidata": "Q6225372", "wikipedia": "en:John Carter Brown Library"}, "Faunce House": {"addr:housename": "Faunce House", "addr:housenumber": "75", "addr:postcode": "02912", "addr:street": "Waterman Street", "building": "yes", "building:levels": "4"}, "Slater Hall": {"addr:housename": "Slater Hall", "addr:housenumber": "1-21", "addr:postcode": "02912", "addr:street": "Prospect Street", "building": "university"}, "Manning": {"addr:housename": "Manning", "addr:housenumber": "1-21", "addr:postcode": "02912", "addr:street": "Prospect Street", "building": "university"}, "Hope College": {"addr:housename": "Hope College", "addr:housenumber": "21", "addr:postcode": "02912", "addr:street": "Prospect Street", "building": "yes"}, "Marston Hall": {"addr:housename": "Marston Hall", "addr:housenumber": "346", "addr:postcode": "02912", "addr:street": "Brook Street", "building": "yes"}, "Sayles Hall": {"addr:housename": "Sayles Hall", "addr:housenumber": "79-81", "addr:postcode": "02912", "addr:street": "Waterman Street", "building": "university", "building:levels": "2"}, "Friedman Hall": {"addr:housename": "Friedman Hall", "addr:housenumber": "75-91", "addr:postcode": "02912", "addr:street": "Waterman Street", "building": "university", "name_1": "Wilson Hall"}, "Rhode Island Hall": {"addr:housename": "Rhode Island Hall", "addr:housenumber": "60", "addr:postcode": "02912", "addr:street": "George Street", "building": "university"}, "Lyman Hall": {"addr:housename": "Lyman Hall", "addr:housenumber": "77", "addr:postcode": "02912", "addr:street": "Waterman Street", "building": "yes"}, "BERT": {"addr:housename": "Hunter Lab", "addr:housenumber": "89", "addr:postcode": "02912", "addr:street": "Waterman Street", "building": "school", "building:levels": "5", "note": "Formerly the Hunter lab"}, "J.W. Wilson": {"addr:housename": "J.W. Wilson", "addr:housenumber": "69", "addr:postcode": "02912 Unset", "addr:street": "Brown Street", "building": "yes"}, "Maxcy Hall": {"addr:housename": "Maxcy Hall", "addr:housenumber": "Lower Green", "addr:postcode": "02912", "building": "yes"}, "Littlefield Hall": {"addr:housename": "Littlefield Hall", "addr:housenumber": "100-102", "addr:postcode": "02912", "addr:street": "George Street", "building": "yes", "designation": "Dormitory"}, "Hegeman": {"addr:housename": "Hegeman", "addr:housenumber": "128", "addr:postcode": "02912", "addr:street": "George Street", "building": "yes", "designation": "Dormitory"}, "Gardner House": {"addr:housename": "Gardner House", "addr:housenumber": "106", "addr:postcode": "02912", "addr:street": "George Street", "building": "yes", "wikidata": "Q6283731"}, "Caswell Hall": {"addr:housename": "Caswell Hall", "addr:housenumber": "168", "addr:postcode": "02912", "addr:street": "Thayer Street", "building": "yes", "designation": "Dormitory"}, "Lincoln Field Building": {"addr:housename": "Lincoln Field Building", "addr:housenumber": "Lower Green", "addr:postcode": "02912", "building": "yes"}, "Brown Center for Students of Color": {"addr:housename": "Partridge Hall", "addr:housenumber": "68", "addr:postcode": "02912", "addr:street": "Brown Street", "building": "yes", "note": "Formerly the Third World Center, name changed in 2014"}, "Walter Hall": {"addr:housename": "Walter Hall", "addr:housenumber": "80", "addr:postcode": "02912", "addr:street": "Waterman Street", "building": "yes"}, "Barus Building": {"addr:housename": "Barus Building", "addr:housenumber": "340", "addr:postcode": "02912", "addr:street": "Brook Street", "building": "yes"}, "Minden Hall": {"addr:city": "Providence", "addr:country": "US", "addr:housename": "Minden Hall", "addr:housenumber": "121", "addr:postcode": "02912", "addr:state": "RI", "addr:street": "Waterman Street", "building": "residential", "building:levels": "8", "designation": "Dormitory"}, "Wayland": {"addr:housename": "Wayland", "addr:housenumber": "27", "addr:postcode": "02912", "addr:street": "Brown Street", "building": "dormitory", "designation": "Dormitory"}, "Arnold Laboratory": {"addr:housename": "Arnold Laboratory", "addr:housenumber": "91", "addr:postcode": "02912", "addr:street": "Waterman Street", "building": "yes", "start_date": "1915"}, "Kassar House": {"addr:housenumber": "141-151", "addr:postcode": "02912", "addr:street": "Thayer Street", "building": "university", "department": "math"}, "GeoChem and Macmillian Hall": {"addr:housename": "GeoChem and Macmillian Hall", "addr:housenumber": "167", "addr:postcode": "02912", "addr:street": "Thayer Street", "building": "yes"}, "Mencoff Hall": {"addr:housenumber": "68", "addr:postcode": "02912", "addr:street": "Waterman Street", "building": "yes"}, "Sharpe Refectory": {"addr:housename": "Sharpe Refectory", "addr:housenumber": "144", "addr:postcode": "02912", "addr:street": "Thayer Street", "amenity": "cafe", "building": "yes", "website": "https://brown.cafebonappetit.com/cafe/sharpe-refectory/"}, "Sears": {"addr:housename": "Sears", "addr:housenumber": "27", "addr:postcode": "02912", "addr:street": "Brown Street", "building": "dormitory", "designation": "Dormitory"}, "Metcalf Research Building": {"addr:housename": "Metcalf Research Building", "addr:housenumber": "190-194", "addr:postcode": "02912", "addr:street": "Thayer Street", "building": "yes", "start_date": "1923"}, "Prince Engineering Lab": {"addr:city": "Providence", "addr:country": "US", "addr:housename": "Prince Engineering Lab", "addr:housenumber": "355", "addr:postcode": "02912", "addr:state": "RI", "addr:street": "Brook Street", "building": "yes"}, "Urban Environmental Lab": {"addr:city": "Providence", "addr:housenumber": "135", "addr:postcode": "02912", "addr:state": "RI", "addr:street": "Angell Street", "building": "school", "building:levels": "2"}, "Robinson Hall": {"addr:housenumber": "64", "addr:postcode": "02912", "addr:street": "Waterman Street", "building": "yes"}, "Lippit House": {"addr:housename": "Lippit House", "addr:housenumber": "96", "addr:postcode": "02912", "addr:street": "Waterman Street", "building": "yes"}, "Prospect House": {"building": "yes"}, "The Center for the Study of Slavery and Justice (CSSJ)": {"addr:city": "Providence", "addr:housenumber": "94", "addr:state": "RI", "addr:street": "Waterman Street", "building": "house"}, "List Art Building": {"building": "school"}, "Maddock Alumni ": {"addr:housename": "Maddock Alumni ", "addr:housenumber": "38", "addr:postcode": "02912", "addr:street": "Brown Street", "building": "yes"}, "86 Waterman ": {"addr:housename": "86 Waterman ", "addr:housenumber": "86", "addr:postcode": "02912", "addr:street": "Waterman Street", "building": "yes"}, "67 George": {"addr:housename": "67 George", "addr:housenumber": "67", "addr:postcode": "02912", "addr:street": "George Street", "building": "yes"}, "Norwood House": {"addr:housename": "Norwood House", "addr:housenumber": "82", "addr:postcode": "02912", "addr:street": "Waterman Street", "building": "yes"}, "Shirley Miller House": {"addr:housename": "Shirley Miller House", "addr:housenumber": "59", "addr:postcode": "02912", "addr:street": "George Street", "building": "yes"}, "Saint Stephens Church": {"addr:city": "Providence", "addr:housenumber": "114", "addr:postcode": "02906-1189", "addr:state": "RI", "addr:street": "George Street", "amenity": "place_of_worship", "building": "church", "denomination": "anglican", "ele": "32", "gnis:feature_id": "2475560", "phone": "+1 (401) 421-6702", "religion": "christian", "website": "https://www.sstephens.org/", "wheelchair": "no", "wikidata": "Q7591750", "wikipedia": "en:S. Stephen's Church (Providence, Rhode Island)"}, "Swearer Center for Public Service": {"addr:city": "Providence", "addr:housenumber": "25", "addr:postcode": "02912", "addr:state": "RI", "addr:street": "George Street", "building": "university", "ele": "26", "gnis:feature_id": "1904326", "phone": "+1 (401) 863-2338", "source": "USGS Geonames", "website": "swearercenter.brown.edu", "wheelchair": "no"}, "Horace Mann House": {"addr:housename": "Horace Mann House", "addr:housenumber": "47-49 ", "addr:postcode": "02912", "addr:street": "George Street", "building": "yes"}, "Wilbour Hall": {"addr:housename": "Wilbour Hall", "addr:housenumber": "2", "addr:postcode": "02912", "addr:street": "Prospect Street", "building": "yes"}, "Carrie Tower": {"building": "university", "historic": "memorial", "inscription": "Love is Strong as Death", "man_made": "tower", "memorial": "building", "start_date": "1904", "tower:type": "bell_tower"}, "Citizen's Bank": {"amenity": "bank", "building": "yes"}, "Lot 76": {"access": "private", "amenity": "parking", "capacity": "30", "operator": "Brown University", "parking": "surface"}, "Finlandia": {"building": "house", "building_1": "Co-op", "building_2": "Cooperative"}, "Hughes Court": {"landuse": "grass"}, "William Goddard Memorial Gate": {"access": "public", "barrier": "gate"}, "Class of 1872 Gate": {"access": "public", "barrier": "gate"}, "John Nicholas Brown Gate": {"access": "public", "barrier": "gate"}, "Robinson Gate": {"access": "public", "barrier": "gate"}, "Class of 1887 Gate": {"access": "public", "barrier": "gate"}, "Medical Research Lab": {"addr:housename": "Medical Research Lab", "addr:housenumber": "89", "addr:postcode": "02912", "addr:street": "Waterman Street", "building": "yes", "start_date": "1965"}, "Soldiers Memorial Gate": {"building": "yes", "historic": "memorial", "inscription": "To the men of Brown who in the World War gave their lives that freedom may endure.", "memorial": "war_memorial", "operator": "Brown University", "start_date": "1921"}, "Morgan Witter Rogers Gate": {"barrier": "gate"}, "Wriston Quad": {"place": "city_block"}, "Maxcy Green": {"landuse": "grass", "operator": "Brown University"}, "Lot 18": {"amenity": "parking"}, "Lot 17": {"amenity": "parking"}, "Simmons Quadrangle": {"landuse": "grass", "leisure": "recreation_ground", "operator": "Brown University"}, "Quiet Green": {"landuse": "grass", "operator": "Brown University"}, "East Side Station Post Office": {"amenity": "post_office", "ele": "40", "gnis:county_id": "007", "gnis:created": "07/16/2008", "gnis:feature_id": "2475582", "gnis:state_id": "44"}, "Andreas": {"amenity": "restaurant", "cuisine": "greek"}, "Spiritus Fermenti": {"shop": "alcohol"}, "Avon Cinema": {"amenity": "cinema", "wikidata": "Q4829187"}, "Brown University Bookstore": {"shop": "books"}, "Meeting Street Cafe": {"amenity": "restaurant", "cuisine": "sandwich"}, "CVS": {"addr:city": "Providence", "addr:housenumber": "291", "addr:postcode": "02906", "addr:state": "RI", "addr:street": "Thayer Street", "amenity": "pharmacy", "dispensing": "no", "opening_hours": "Su-Sa 07:00-24:00", "phone": "+1 401 331 1970", "shop": "convenience"}, "College Hill Bookstore": {"shop": "books"}, "Blue State Coffee": {"addr:city": "Providence", "addr:housenumber": "300", "addr:state": "RI", "addr:street": "Thayer Street", "amenity": "cafe", "bus": "yes", "fair_trade": "yes", "internet_access": "yes", "opening_hours": "Mo-Fr 07:00-22:00, Sa-Su 08:00-22:00", "phone": "1-877-626-2583", "website": "https://bluestatecoffee.com/"}, "Salon Persia": {"shop": "beauty"}, "Pleasant Surprises": {"shop": "yes"}, "Facing Thayer": {"shop": "beauty"}, "Supercuts": {"brand": "Supercuts", "brand:wikidata": "Q7643239", "brand:wikipedia": "en:Supercuts", "shop": "hairdresser"}, "Soban": {"amenity": "restaurant", "cuisine": "korean", "takeaway": "yes"}, "Berk's;Shanghai": {"amenity": "restaurant", "shop": "yes"}, "West House": {"addr:housename": "West House", "addr:housenumber": "91", "addr:street": "Brown Street", "building": "yes"}, "Thayer and Meeting": {"bus": "yes", "network": "RIPTA", "operator": "Rhode Island Public Transit Authority", "public_transport": "stop_position"}, "Thayer and Cushing": {"bus": "yes", "network": "RIPTA", "operator": "Rhode Island Public Transit Authority", "public_transport": "stop_position"}, "111 Brown Street (North House)": {"addr:housenumber": "111", "addr:postcode": "02912", "addr:street": "Brown Street", "building": "dormitory", "building:levels": "3", "designation": "Dormitory"}, "Emery Hall": {"addr:housename": "Emery Hall", "addr:housenumber": "200", "addr:postcode": "02912", "addr:street": "Meeting Street", "building": "dormitory", "start_date": "1963"}, "Morriss Hall": {"addr:housename": "Morriss Hall", "addr:housenumber": "206", "addr:postcode": "02912", "addr:street": "Meeting Street", "building": "dormitory", "start_date": "1960"}, "Andrews Hall": {"addr:housename": "Andrews Hall", "addr:housenumber": "211", "addr:postcode": "02912", "addr:street": "BowenStreet", "building": "dormitory"}, "Smith Buonanno Hall": {"addr:housename": "Smith Buonanno Hall", "addr:housenumber": "95", "addr:postcode": "02912", "addr:street": "Cushing Street", "building": "yes"}, "Sidney Frank Hall": {"addr:housename": "Sidney Frank Hall", "addr:housenumber": "185", "addr:postcode": "02912", "addr:street": "Meeting Street", "building": "yes"}, "Alumnae Hall": {"addr:housenumber": "194-200", "addr:postcode": "02912", "addr:street": "Meeting Street", "building": "yes"}, "Pembroke Hall": {"addr:housename": "Pembroke Hall", "addr:housenumber": "172", "addr:postcode": "02912", "addr:street": "Meeting Street", "building": "yes"}, "Sharpe House": {"addr:housename": "Sharpe House", "addr:housenumber": "130-132", "addr:postcode": "02912", "addr:street": "Angell Street", "building": "yes"}, "219 Bowen": {"addr:housename": "219 Bowen", "addr:housenumber": "219", "addr:postcode": "02912", "addr:street": "Bowen Street", "building": "yes"}, "New Pembroke 3": {"addr:housename": "New Pembroke 3", "addr:housenumber": "302", "addr:postcode": "02912", "addr:street": "Thayer Street", "building": "yes"}, "New Pembroke 2": {"addr:housename": "New Pembroke 2", "addr:housenumber": "302", "addr:postcode": "02912", "addr:street": "Thayer Street", "building": "yes"}, "164 Angel": {"addr:housename": "164 Angel", "addr:housenumber": "164-176", "addr:postcode": "02912", "addr:street": "Angell Street", "building": "yes", "name_1": "Brown Office Building"}, "Hillel House": {"building": "yes"}, "New Pembroke 4": {"addr:housename": "New Pembroke 4", "addr:housenumber": "302", "addr:postcode": "02912", "addr:street": "Thayer Street", "building": "yes"}, "Granoff Center": {"addr:housename": "Granoff Center", "addr:housenumber": "154", "addr:postcode": "02912", "addr:street": "Angell Street", "building": "yes"}, "Peter Green House": {"addr:housename": "Peter Green House", "addr:housenumber": "79", "addr:postcode": "02912", "addr:street": "Brown Street", "building": "yes"}, "Grimshaw-Gudewicz Biomedical Building": {"addr:housename": "Grimshaw-Gudewicz Biomedical Building", "addr:housenumber": "81-89", "addr:postcode": "02912", "addr:street": "Brown Street", "building": "yes"}, "Biomedical Center": {"addr:housename": "Biomedical Center", "addr:housenumber": "171", "addr:postcode": "02912", "addr:street": "Meeting Street", "building": "yes"}, "Second Time Around": {"building": "yes", "shop": "second_hand"}, "Metcalf Hall": {"addr:housename": "Metcalf Hall", "addr:housenumber": "98", "addr:postcode": "02912", "addr:street": "Cushing Street", "building": "dormitory"}, "Miller Hall": {"addr:housename": "Miller Hall", "addr:housenumber": "118", "addr:postcode": "02912", "addr:street": "Cushing Street", "building": "dormitory"}, "New Pembroke 1": {"building": "yes"}, "Andrews Terrace": {"building": "refectory"}, "Champlin Hall": {"addr:housename": "Champlin Hall", "addr:housenumber": "208", "addr:postcode": "02912", "addr:street": "Meeting Street", "building": "dormitory", "start_date": "1960"}, "Emery & Wooley": {"addr:housename": "Emery & Wooley", "addr:housenumber": "200", "addr:postcode": "02912", "addr:street": "Meeting Street", "building": "dormitory", "start_date": "1960"}, "Pembroke Park": {"landuse": "grass"}, "Verney-Woolley Hall": {"addr:housename": "Verney-Woolley Hall", "addr:housenumber": "204", "addr:postcode": "02912", "addr:street": "Meeting Street", "building": "dormitory", "start_date": "1960"}, "J. R. Workman Garden": {"leisure": "garden"}, "La Creperie":{"addr:city":	"Providence", "addr:district":	"College Hill", "addr:housenumber":	"87", "addr:postcode":	"02906", "addr:state":	"RI", "addr:street":	"Fones Alley", "amenity":	"restaurant", "cuisine":	"crepe", "name":	"La CrÃªperie", "opening_hours":	"Mo-Th 10:00-24:00; Fr 10:00-24:00; Sa 00:01-02:00; Sa 09:00-24:00; Su 00:01-02:00; Su 09:00-12:00", "phone":	"1-401-751-5536", "website":	"creperieprov.com"}, "Kabob and Curry":{"addr:housenumber":	"261", "addr:postcode":	"02901", "addr:street":	"Thayer Street", "amenity":	"restaurant","building":	"yes", "cuisine":	"indian", "name":	"Kabob and Curry", "phone":	"1-401-273-8844", "website":	"http://www.kabobandcurry.com/"}}
